OSCAR 7 (AO-7)          
1 07530U 74089B   19054.48332404 -.00000042  00000-0  20018-4 0  9992
2 07530 101.7287  23.3975 0011919 208.5183 266.4946 12.53636735 26084
UOSAT 2 (UO-11)         
1 14781U 84021B   19054.05857123  .00000059  00000-0  13359-4 0  9995
2 14781  97.6234  84.1696 0008053 349.7676  10.3373 14.83065137881626
LUSAT (LO-19)           
1 20442U 90005G   19053.89541587  .00000010  00000-0  19818-4 0  9993
2 20442  98.6375 356.1645 0012618 127.4127 232.8207 14.32917780519791
ITAMSAT (IO-26)         
1 22826U 93061D   19054.50282323 -.00000019  00000-0  10453-4 0  9991
2 22826  98.8880  40.5734 0008380 329.8664  30.2035 14.30384647325680
RADIO ROSTO (RS-15)     
1 23439U 94085A   19053.96828012 -.00000031  00000-0  33064-3 0  9995
2 23439  64.8173 303.2696 0148809 135.4060 290.3398 11.27567794994847
JAS-2 (FO-29)           
1 24278U 96046B   19053.90140265 -.00000019  00000-0  16132-4 0  9991
2 24278  98.5192 223.1191 0350443 180.2011 179.9043 13.53089363111894
TECHSAT 1B (GO-32)      
1 25397U 98043D   19054.00714091 -.00000013  00000-0  13459-4 0  9992
2 25397  98.6781 355.6240 0001910  47.1379 312.9959 14.23660514 71417
ISS (ZARYA)             
1 25544U 98067A   19054.36685411  .00000711  00000-0  18507-4 0  9997
2 25544  51.6407 207.1680 0005941  57.7220  26.9178 15.53285406157578
PCSAT (NO-44)           
1 26931U 01043C   19054.14165961 -.00000032  00000-0  19353-4 0  9992
2 26931  67.0515 301.8541 0005351 271.3066  88.7422 14.30532995908445
SAUDISAT 1C (SO-50)     
1 27607U 02058C   19053.58282806 -.00000036  00000-0  15953-4 0  9991
2 27607  64.5549  44.5762 0082133 278.5837  80.5965 14.75521777869778
CUTE-1 (CO-55)          
1 27844U 03031E   19053.70831558  .00000027  00000-0  31983-4 0  9994
2 27844  98.6867  63.6417 0009972  13.3636 346.7804 14.22161268811765
CUBESAT XI-IV (CO-57)   
1 27848U 03031J   19053.80828733  .00000013  00000-0  25651-4 0  9990
2 27848  98.6947  64.2131 0010076  23.8861 336.2782 14.21758712811675
MOZHAYETS 4 (RS-22)     
1 27939U 03042A   19054.41880779  .00000105  00000-0  27436-4 0  9994
2 27939  98.0202 192.6129 0014325  74.4948 285.7850 14.66755596823646
CUBESAT XI-V            
1 28895U 05043F   19054.38461772  .00000097  00000-0  27464-4 0  9994
2 28895  97.9392 201.1944 0016609   0.5183 359.6034 14.63632479710613
CUTE-1.7+APD II (CO-65) 
1 32785U 08021C   19053.84270472  .00000156  00000-0  22450-4 0  9997
2 32785  97.5482  59.0360 0011633 289.5575  70.4386 14.88252908586453
DELFI-C3 (DO-64)        
1 32789U 08021G   19054.13600960  .00000868  00000-0  62464-4 0  9992
2 32789  97.4807 107.2137 0013198 154.6881 205.4996 15.06671168589561
SEEDS II (CO-66)        
1 32791U 08021J   19053.98797577  .00000269  00000-0  32708-4 0  9991
2 32791  97.5301  65.0070 0011883 262.5166  97.4703 14.90738651586874
YUBILEINY (RS-30)       
1 32953U 08025A   19054.47196889  .00000020  00000-0  75656-4 0  9993
2 32953  82.5016 216.3960 0019520  23.3949 336.8016 12.43087737487996
KKS-1 (KISEKI)          
1 33499U 09002H   19054.52030401  .00000067  00000-0  17943-4 0  9994
2 33499  98.3546 249.5039 0008602 206.3978 153.6792 14.75408560542248
SWISSCUBE               
1 35932U 09051B   19054.44066441  .00000098  00000-0  33268-4 0  9998
2 35932  98.5725 217.1256 0008254 152.6647 207.4986 14.56246405500002
BEESAT-1                
1 35933U 09051C   19054.03864604  .00000070  00000-0  26841-4 0  9990
2 35933  98.5759 218.4109 0006210 163.8336 196.3060 14.56340212500055
ITUPSAT1                
1 35935U 09051E   19053.89236300  .00000065  00000-0  25995-4 0  9994
2 35935  98.5870 218.5053 0008538 163.5223 196.6252 14.55505595499764
XIWANG-1 (HOPE-1)       
1 36122U 09072B   19054.13254791 -.00000019  00000-0  61999-4 0  9992
2 36122 100.0722  61.9485 0006775 251.4778 108.5611 13.16348613441670
JUGNU                   
1 37839U 11058B   19053.89449595  .00000313  00000-0  24962-4 0  9990
2 37839  19.9618 316.9844 0019086 130.6204 303.5762 14.12642267380867
SRMSAT                  
1 37841U 11058D   19054.17838041  .00000298  00000-0  18456-4 0  9996
2 37841  19.9733   9.6462 0011829   8.9072 305.8799 14.10624703380360
M-CUBED & EXP-1 PRIME   
1 37855U 11061F   19053.87707431  .00000944  00000-0  55302-4 0  9998
2 37855 101.7279 249.9399 0174390  59.9900 301.8488 15.05152310398889
STRAND-1                
1 39090U 13009E   19054.18595179  .00000017  00000-0  21250-4 0  9990
2 39090  98.4990 261.9987 0008034 272.9430  87.0836 14.35071859313828
SOMP                    
1 39134U 13015E   19053.89144579  .00001315  00000-0  70251-4 0  9994
2 39134  64.8633  35.5141 0019928 322.0947  37.8776 15.19832035322616
BEESAT-3                
1 39135U 13015F   19054.20353892  .00000778  00000-0  48753-4 0  9995
2 39135  64.8701  51.2138 0009983 279.2728  80.7268 15.17219261322727
BEESAT-2                
1 39136U 13015G   19053.80224007  .00000939  00000-0  57677-4 0  9990
2 39136  64.8691  55.9803 0010869 288.1665  71.8277 15.16652343322597
ZACUBE-1 (TSHEPISOSAT)  
1 39417U 13066B   19053.84049431  .00000191  00000-0  30335-4 0  9990
2 39417  97.5697  73.8112 0060187  54.7628 305.9198 14.81057924283891
GOMX-1                  
1 39430U 13066Q   19054.42367574  .00000076  00000-0  23195-4 0  9999
2 39430  97.7310  18.6708 0149772 257.6879 100.7519 14.59199601279794
CUBEBUG-2 (LO-74)       
1 39440U 13066AA  19053.81295274  .00000169  00000-0  30315-4 0  9994
2 39440  97.6005  59.1081 0081831 101.2619 259.7802 14.75795670282886
FUNCUBE-1 (AO-73)       
1 39444U 13066AE  19054.03957728  .00000243  00000-0  36173-4 0  9993
2 39444  97.5689  75.8256 0059210  48.6281 312.0003 14.81864942282805
UWE-3                   
1 39446U 13066AG  19054.01554786  .00000175  00000-0  29721-4 0  9995
2 39446  97.5838  66.1596 0071571  77.8568 283.0650 14.78330801282172
SPROUT                  
1 39770U 14029E   19054.51741204  .00000419  00000-0  52630-4 0  9999
2 39770  97.8787 158.6307 0010174 102.3483 257.8877 14.87183815257710
UNISAT-6                
1 40012U 14033C   19054.20163869  .00000141  00000-0  28356-4 0  9996
2 40012  97.7748 285.6653 0059676 109.8684 250.8969 14.73929109251670
DUCHIFAT-1              
1 40021U 14033M   19054.35023702  .00000331  00000-0  39690-4 0  9997
2 40021  97.9221 338.5893 0014341  72.0111 288.2668 14.90527912254363
QB50P1                  
1 40025U 14033R   19053.90665327  .00000248  00000-0  32425-4 0  9992
2 40025  97.9069 333.7810 0013931  81.2459 279.0335 14.88870061253589
NUDT-PHONESAT           
1 40900U 15049B   19054.50952396  .00001623  00000-0  73453-4 0  9998
2 40900  97.4396  64.9990 0011718 223.3780 287.8787 15.22294832190132
ZDPS 2A                 
1 40901U 15049C   19054.49986031  .00000727  00000-0  39558-4 0  9992
2 40901  97.4599  62.0015 0011917 240.4288 270.8909 15.17515333189760
ZDPS 2B                 
1 40902U 15049D   19054.50269149  .00000488  00000-0  27847-4 0  9991
2 40902  97.4524  59.6554 0012121 237.2018 240.2067 15.17290257189741
XW-2A                   
1 40903U 15049E   19054.43905615  .00001582  00000-0  39856-4 0  9998
2 40903  97.3537  96.4764 0012658 195.4119 278.6421 15.41389311192491
KAITUO 1A               
1 40904U 15049F   19054.44806412  .00000119  00000-0  98221-5 0  9992
2 40904  97.4648  58.4495 0013136 245.4310 274.0383 15.15250146189549
2015-049G               
1 40905U 15049G   19054.44698882  .00000071  00000-0  74533-5 0  9990
2 40905  97.4668  56.1467 0014159 238.2903 279.9563 15.14185661189430
XW-2C                   
1 40906U 15049H   19054.52922347  .00000645  00000-0  37514-4 0  9990
2 40906  97.4651  58.5391 0013307 235.2487 242.0761 15.15517311189559
XW-2D                   
1 40907U 15049J   19054.38661830  .00000605  00000-0  35237-4 0  9998
2 40907  97.4627  58.0770 0012577 233.7028 232.8983 15.15692082189542
LILACSAT-2              
1 40908U 15049K   19054.45457727  .00000086  00000-0  84103-5 0  9995
2 40908  97.4748  57.1637 0014366 237.6882 279.2076 15.13705683189377
XW-2F                   
1 40910U 15049M   19054.52255764  .00000808  00000-0  44173-4 0  9997
2 40910  97.4610  59.9821 0013696 224.4693 255.0996 15.17043523189557
XW-2B                   
1 40911U 15049N   19054.41406635  .00000649  00000-0  37602-4 0  9993
2 40911  97.4652  58.7231 0012583 233.6474 232.5443 15.15626655189445
KAITUO 1B               
1 40912U 15049P   19054.39553299  .00000933  00000-0  47349-4 0  9995
2 40912  97.4501  63.2574 0013913 209.5673 256.2333 15.19322663189808
TIANWANG 1C (TW-1C)     
1 40926U 15051B   19054.48981265  .00009184  00000-0  14737-3 0  9992
2 40926  97.1522 100.9103 0010926  79.6529  27.7611 15.53209155192269
TIANWANG 1A (TW-1A)     
1 40928U 15051D   19054.52362006  .00002668  00000-0  68672-4 0  9993
2 40928  97.1587  88.3423 0012960 125.5305  19.8875 15.40033017191440
LAPAN-A2                
1 40931U 15052B   19050.67521619  .00000631  00000-0 -11729-5 0  9998
2 40931   5.9965 185.3777 0012436 269.3417  90.5202 14.76597304183645
E-ST@R-II               
1 41459U 16025D   19054.47156728  .00001206  00000-0  65827-4 0  9997
2 41459  98.1099 135.2009 0169776  26.0563 334.9082 15.05108916155218
AAUSAT 4                
1 41460U 16025E   19054.45207523  .00000940  00000-0  51571-4 0  9992
2 41460  98.1013 136.1503 0159886  19.7622 340.9711 15.06831662155310
NUSAT-1 (FRESCO)        
1 41557U 16033B   19054.51884525  .00001123  00000-0  45224-4 0  9990
2 41557  97.4220 142.7052 0013555 351.6655   8.4357 15.26892721152513
BEESAT-4                
1 41619U 16040W   19054.40188460  .00001155  00000-0  52314-4 0  9993
2 41619  97.3829 118.7069 0013016  72.1888 288.0767 15.22791871136313
CAS-2T & KS-1Q          
1 41847U 16066G   19054.10230479  .00000010  00000-0  12630-4 0  9995
2 41847  98.7225  92.8930 0365456 218.6172 138.8359 14.37959007120382
NAYIF-1 (EO-88)         
1 42017U 17008BX  19054.17407302  .00001290  00000-0  54321-4 0  9994
2 42017  97.4171 122.4041 0005582 202.3570 157.7426 15.25163559112310
LILACSAT-1 (LO-90)      
1 42725U 98067ME  19054.45786309  .00157352  20945-4  38202-3 0  9996
2 42725  51.6325 138.9885 0003873  16.7130  67.9867 15.95961760100211
MAX VALIER SAT          
1 42778U 17036P   19053.74340181  .00000762  00000-0  36584-4 0  9996
2 42778  97.3706 113.8812 0010806 271.1046  88.8952 15.21778170 92608
RADFXSAT (FOX-1B)       
1 43017U 17073E   19054.00318433  .00000318  00000-0  30319-4 0  9996
2 43017  97.7218 339.9086 0258820 174.7882 185.6122 14.78395826 68160
FOX-1D (AO-92)          
1 43137U 18004AC  19053.88800013  .00000849  00000-0  38926-4 0  9990
2 43137  97.5017 121.8851 0008015 308.7846  51.2674 15.23208637 61879
ES'HAIL 2               
1 43700U 18090A   19053.81073095  .00000122  00000-0  00000+0 0  9997
2 43700   0.0122 122.6056 0001570 244.7738 102.6795  1.00273974  1139
FOX-1CLIFF (AO-95)      
1 43770U 18099N   19054.15828355  .00000376  00000-0  39949-4 0  9998
2 43770  97.7576 127.4426 0014621   5.3066 354.8306 14.94683480 12160
ITASAT 1                
1 43786U 18099AE  19054.20419064  .00000458  00000-0  47088-4 0  9998
2 43786  97.7588 127.5529 0014989 359.1212   0.9980 14.95064495 12173
JY1SAT (JO-97)          
1 43803U 18099AX  19054.19835550  .00000337  00000-0  35880-4 0  9991
2 43803  97.7544 127.5114 0014982 359.9142   0.2073 14.95177269 12167
